[{"OBJECT_NAME":"STARLINK-4183","OBJECT_ID":"2022-076AE","EPOCH":"2026-03-09T10:38:59.720064","MEAN_MOTION":15.0884146,"ECCENTRICITY":0.00013138,"INCLINATION":53.2165,"RA_OF_ASC_NODE":85.2243,"ARG_OF_PERICENTER":83.7669,"MEAN_ANOMALY":276.3472,"EPHEMERIS_TYPE":0,"CLASSIFICATION_TYPE":"U","NORAD_CAT_ID":53014,"ELEMENT_SET_NO":999,"REV_AT_EPOCH":20294,"BSTAR":-3.888561e-6,"MEAN_MOTION_DOT":-3.5e-6,"MEAN_MOTION_DDOT":0},{"OBJECT_NAME":"CZ-4C R\/B","OBJECT_ID":"2023-149B","EPOCH":"2026-03-09T22:22:25.562784","MEAN_MOTION":14.98980057,"ECCENTRICITY":0.01068179,"INCLINATION":98.1836,"RA_OF_ASC_NODE":72.6086,"ARG_OF_PERICENTER":338.7551,"MEAN_ANOMALY":20.9251,"EPHEMERIS_TYPE":0,"CLASSIFICATION_TYPE":"U","NORAD_CAT_ID":57959,"ELEMENT_SET_NO":999,"REV_AT_EPOCH":13373,"BSTAR":0.00028701864,"MEAN_MOTION_DOT":3.84e-5,"MEAN_MOTION_DDOT":0}]
